{
    "links": {
        "self": "http://www.neowsapp.com/rest/v1/neo/3715511?api_key=iIulBulltgU6a56xZRHN4H3l9WmuAYTsLGpBGhQ2"
    },
    "id": "3715511",
    "neo_reference_id": "3715511",
    "name": "(2015 GB1)",
    "designation": "2015 GB1",
    "nasa_jpl_url": "http://ssd.jpl.nasa.gov/sbdb.cgi?sstr=3715511",
    "absolute_magnitude_h": 26.5,
    "estimated_diameter": {
        "kilometers": {
            "estimated_diameter_min": 0.0133215567,
            "estimated_diameter_max": 0.0297879063
        },
        "meters": {
            "estimated_diameter_min": 13.3215566698,
            "estimated_diameter_max": 29.7879062798
        },
        "miles": {
            "estimated_diameter_min": 0.008277629,
            "estimated_diameter_max": 0.0185093411
        },
        "feet": {
            "estimated_diameter_min": 43.7058959846,
            "estimated_diameter_max": 97.7293544391
        }
    },
    "is_potentially_hazardous_asteroid": false,
    "close_approach_data": [
        {
            "close_approach_date": "2015-04-13",
            "close_approach_date_full": "2015-Apr-13 14:27",
            "epoch_date_close_approach": 1428935220000,
            "relative_velocity": {
                "kilometers_per_second": "7.677500218",
                "kilometers_per_hour": "27639.0007849155",
                "miles_per_hour": "17173.800237716"
            },
            "miss_distance": {
                "astronomical": "0.0154340703",
                "lunar": "6.0038533467",
                "kilometers": "2308904.042310261",
                "miles": "1434686.4445971618"
            },
            "orbiting_body": "Earth"
        }
    ],
    "orbital_data": {
        "orbit_id": "7",
        "orbit_determination_date": "2018-05-10 06:25:32",
        "first_observation_date": "2015-03-24",
        "last_observation_date": "2015-04-13",
        "data_arc_in_days": 20,
        "observations_used": 35,
        "orbit_uncertainty": "7",
        "minimum_orbit_intersection": ".000118599",
        "jupiter_tisserand_invariant": "4.008",
        "epoch_osculation": "2459000.5",
        "eccentricity": ".4386409981352956",
        "semi_major_axis": "1.755070513179182",
        "inclination": "2.417396096934822",
        "ascending_node_longitude": "27.61985040606831",
        "orbital_period": "849.2592414533212",
        "perihelion_distance": ".9852246314804403",
        "perihelion_argument": "200.424112900496",
        "aphelion_distance": "2.524916394877925",
        "perihelion_time": "2458845.340349951684",
        "mean_anomaly": "65.77199433450484",
        "mean_motion": ".4238988313909176",
        "equinox": "J2000",
        "orbit_class": {
            "orbit_class_type": "APO",
            "orbit_class_description": "Near-Earth asteroid orbits which cross the Earth’s orbit similar to that of 1862 Apollo",
            "orbit_class_range": "a (semi-major axis) > 1.0 AU; q (perihelion) < 1.017 AU"
        }
    },
    "is_sentry_object": false
}